{"type": "FeatureCollection", "features": [ {"type": "Feature", "properties": {"norad_id": 30061, "name": "FENGYUN 1C DEB", "group": "fengyun-1c-debris", "lat": 61.24092972211786, "lon": -57.23713809025105, "alt_km": 1239.6126604825167, "timestamp": "2025-12-15T22:44:29.201373+00:00", "meta": {"OBJECT_NAME": "FENGYUN 1C DEB", "OBJECT_ID": "1999-025PN", "EPOCH": "2025-12-15T06:13:46.308864", "MEAN_MOTION": 13.46464689, "ECCENTRICITY": 0.03729722, "INCLINATION": 101.8747, "RA_OF_ASC_NODE": 99.4059, "ARG_OF_PERICENTER": 244.8226, "MEAN_ANOMALY": 141.6423, "EPHEMERIS_TYPE": 0, "CLASSIFICATION_TYPE": "U", "NORAD_CAT_ID": 30061, "ELEMENT_SET_NO": 999, "REV_AT_EPOCH": 92133, "BSTAR": 0.0026414998, "MEAN_MOTION_DOT": 2.366e-05, "MEAN_MOTION_DDOT": 0}, "tle": {"line1": "1 30061U 99025PN  25349.25956376  .00002366  00000+0  26415-2 0  9997", "line2": "2 30061 101.8747  99.4059 0372972 244.8226 141.6423 13.46464689921334"}}, "geometry": {"type": "Point", "coordinates": [-57.23713809025105, 61.24092972211786]}}, {"type": "Feature", "properties": {"norad_id": 30062, "name": "FENGYUN 1C DEB", "group": "fengyun-1c-debris", "lat": 43.34328151781111, "lon": -9.345290867624419, "alt_km": 829.8989890224066, "timestamp": "2025-12-15T22:44:29.201383+00:00", "meta": {"OBJECT_NAME": "FENGYUN 1C DEB", "OBJECT_ID": "1999-025PP", "EPOCH": "2025-12-15T07:13:36.100128", "MEAN_MOTION": 14.07116464, "ECCENTRICITY": 0.00493945, "INCLINATION": 98.7808, "RA_OF_ASC_NODE": 358.4147, "ARG_OF_PERICENTER": 41.1688, "MEAN_ANOMALY": 330.011, "EPHEMERIS_TYPE": 0, "CLASSIFICATION_TYPE": "U", "NORAD_CAT_ID": 30062, "ELEMENT_SET_NO": 999, "REV_AT_EPOCH": 96944, "BSTAR": 0.00045312966, "MEAN_MOTION_DOT": 7.24e-06, "MEAN_MOTION_DDOT": 0}, "tle": {"line1": "1 30062U 99025PP  25349.30111227  .00000724  00000+0  45313-3 0  9997", "line2": "2 30062  98.7808 358.4147 0049394  41.1688 330.0110 14.07116464969446"}}, "geometry": {"type": "Point", "coordinates": [-9.345290867624419, 43.34328151781111]}}, {"type": "Feature", "properties": {"norad_id": 30063, "name": "FENGYUN 1C DEB", "group": "fengyun-1c-debris", "lat": 24.927330099189177, "lon": 152.61693273539157, "alt_km": 818.6371903022891, "timestamp": "2025-12-15T22:44:29.201393+00:00", "meta": {"OBJECT_NAME": "FENGYUN 1C DEB", "OBJECT_ID": "1999-025PQ", "EPOCH": "2025-12-15T05:08:08.658240", "MEAN_MOTION": 14.1561242, "ECCENTRICITY": 0.00330912, "INCLINATION": 98.5215, "RA_OF_ASC_NODE": 327.9199, "ARG_OF_PERICENTER": 127.2769, "MEAN_ANOMALY": 250.8901, "EPHEMERIS_TYPE": 0, "CLASSIFICATION_TYPE": "U", "NORAD_CAT_ID": 30063, "ELEMENT_SET_NO": 999, "REV_AT_EPOCH": 97700, "BSTAR": 9.0363812e-05, "MEAN_MOTION_DOT": 1.37e-06, "MEAN_MOTION_DDOT": 0}, "tle": {"line1": "1 30063U 99025PQ  25349.21398910  .00000137  00000+0  90364-4 0  9999", "line2": "2 30063  98.5215 327.9199 0033091 127.2769 250.8901 14.15612420977008"}}, "geometry": {"type": "Point", "coordinates": [152.61693273539157, 24.927330099189177]}}, {"type": "Feature", "properties": {"norad_id": 30064, "name": "FENGYUN 1C DEB", "group": "fengyun-1c-debris", "lat": -79.62118418742402, "lon": 124.5679058433982, "alt_km": 897.8719570005824, "timestamp": "2025-12-15T22:44:29.201404+00:00", "meta": {"OBJECT_NAME": "FENGYUN 1C DEB", "OBJECT_ID": "1999-025PR", "EPOCH": "2025-12-15T07:59:59.939232", "MEAN_MOTION": 14.14271311, "ECCENTRICITY": 0.00666743, "INCLINATION": 98.6617, "RA_OF_ASC_NODE": 0.3061, "ARG_OF_PERICENTER": 104.0988, "MEAN_ANOMALY": 274.4091, "EPHEMERIS_TYPE": 0, "CLASSIFICATION_TYPE": "U", "NORAD_CAT_ID": 30064, "ELEMENT_SET_NO": 999, "REV_AT_EPOCH": 97542, "BSTAR": 0.000180103, "MEAN_MOTION_DOT": 3.09e-06, "MEAN_MOTION_DDOT": 0}, "tle": {"line1": "1 30064U 99025PR  25349.33333263  .00000309  00000+0  18010-3 0  9991", "line2": "2 30064  98.6617   0.3061 0066674 104.0988 274.4091 14.14271311975420"}}, "geometry": {"type": "Point", "coordinates": [124.5679058433982, -79.62118418742402]}}, {"type": "Feature", "properties": {"norad_id": 30065, "name": "FENGYUN 1C DEB", "group": "fengyun-1c-debris", "lat": -78.97660063169789, "lon": 90.87011786012016, "alt_km": 993.568479729408, "timestamp": "2025-12-15T22:44:29.201414+00:00", "meta": {"OBJECT_NAME": "FENGYUN 1C DEB", "OBJECT_ID": "1999-025PS", "EPOCH": "2025-12-14T21:14:00.276288", "MEAN_MOTION": 13.86916588, "ECCENTRICITY": 0.01316139, "INCLINATION": 98.6842, "RA_OF_ASC_NODE": 321.5618, "ARG_OF_PERICENTER": 25.7943, "MEAN_ANOMALY": 334.9701, "EPHEMERIS_TYPE": 0, "CLASSIFICATION_TYPE": "U", "NORAD_CAT_ID": 30065, "ELEMENT_SET_NO": 999, "REV_AT_EPOCH": 95701, "BSTAR": 0.00019985125, "MEAN_MOTION_DOT": 2.1e-06, "MEAN_MOTION_DDOT": 0}, "tle": {"line1": "1 30065U 99025PS  25348.88472542  .00000210  00000+0  19985-3 0  9998", "line2": "2 30065  98.6842 321.5618 0131613  25.7943 334.9701 13.86916588957018"}}, "geometry": {"type": "Point", "coordinates": [90.87011786012016, -78.97660063169789]}}, {"type": "Feature", "properties": {"norad_id": 30066, "name": "FENGYUN 1C DEB", "group": "fengyun-1c-debris", "lat": 35.6619724245343, "lon": 166.5583469701437, "alt_km": 852.1230744631248, "timestamp": "2025-12-15T22:44:29.201425+00:00", "meta": {"OBJECT_NAME": "FENGYUN 1C DEB", "OBJECT_ID": "1999-025PT", "EPOCH": "2025-12-14T22:37:15.520800", "MEAN_MOTION": 14.19111078, "ECCENTRICITY": 0.01167041, "INCLINATION": 98.6343, "RA_OF_ASC_NODE": 339.3196, "ARG_OF_PERICENTER": 255.4877, "MEAN_ANOMALY": 158.0104, "EPHEMERIS_TYPE": 0, "CLASSIFICATION_TYPE": "U", "NORAD_CAT_ID": 30066, "ELEMENT_SET_NO": 999, "REV_AT_EPOCH": 97868, "BSTAR": 0.00017897949, "MEAN_MOTION_DOT": 3.57e-06, "MEAN_MOTION_DDOT": 0}, "tle": {"line1": "1 30066U 99025PT  25348.94254075  .00000357  00000+0  17898-3 0  9998", "line2": "2 30066  98.6343 339.3196 0116704 255.4877 158.0104 14.19111078978681"}}, "geometry": {"type": "Point", "coordinates": [166.5583469701437, 35.6619724245343]}}, {"type": "Feature", "properties": {"norad_id": 30067, "name": "FENGYUN 1C DEB", "group": "fengyun-1c-debris", "lat": -9.05132149502386, "lon": -122.46498225062126, "alt_km": 647.135424163519, "timestamp": "2025-12-15T22:44:29.201435+00:00", "meta": {"OBJECT_NAME": "FENGYUN 1C DEB", "OBJECT_ID": "1999-025PU", "EPOCH": "2025-12-15T05:02:45.701088", "MEAN_MOTION": 14.4369466, "ECCENTRICITY": 0.01517447, "INCLINATION": 98.7658, "RA_OF_ASC_NODE": 235.3673, "ARG_OF_PERICENTER": 10.7538, "MEAN_ANOMALY": 110.9123, "EPHEMERIS_TYPE": 0, "CLASSIFICATION_TYPE": "U", "NORAD_CAT_ID": 30067, "ELEMENT_SET_NO": 999, "REV_AT_EPOCH": 99234, "BSTAR": 0.00035069605, "MEAN_MOTION_DOT": 1.316e-05, "MEAN_MOTION_DDOT": 0}, "tle": {"line1": "1 30067U 99025PU  25349.21025117  .00001316  00000+0  35070-3 0  9991", "line2": "2 30067  98.7658 235.3673 0151744  10.7538 110.9123 14.43694660992343"}}, "geometry": {"type": "Point", "coordinates": [-122.46498225062126, -9.05132149502386]}}, {"type": "Feature", "properties": {"norad_id": 30068, "name": "FENGYUN 1C DEB", "group": "fengyun-1c-debris", "lat": -43.71526915390649, "lon": 149.22137830019773, "alt_km": 915.8563114409326, "timestamp": "2025-12-15T22:44:29.201445+00:00", "meta": {"OBJECT_NAME": "FENGYUN 1C DEB", "OBJECT_ID": "1999-025PV", "EPOCH": "2025-12-15T04:39:50.296032", "MEAN_MOTION": 14.12049781, "ECCENTRICITY": 0.01898607, "INCLINATION": 98.7366, "RA_OF_ASC_NODE": 336.9417, "ARG_OF_PERICENTER": 341.8679, "MEAN_ANOMALY": 17.5783, "EPHEMERIS_TYPE": 0, "CLASSIFICATION_TYPE": "U", "NORAD_CAT_ID": 30068, "ELEMENT_SET_NO": 999, "REV_AT_EPOCH": 97378, "BSTAR": 0.00021888226, "MEAN_MOTION_DOT": 4.31e-06, "MEAN_MOTION_DDOT": 0}, "tle": {"line1": "1 30068U 99025PV  25349.19433213  .00000431  00000+0  21888-3 0  9998", "line2": "2 30068  98.7366 336.9417 0189860 341.8679  17.5783 14.12049781973783"}}, "geometry": {"type": "Point", "coordinates": [149.22137830019773, -43.71526915390649]}}, {"type": "Feature", "properties": {"norad_id": 30069, "name": "FENGYUN 1C DEB", "group": "fengyun-1c-debris", "lat": -48.958399064527796, "lon": 141.4501900024561, "alt_km": 918.5354622555515, "timestamp": "2025-12-15T22:44:29.201456+00:00", "meta": {"OBJECT_NAME": "FENGYUN 1C DEB", "OBJECT_ID": "1999-025PW", "EPOCH": "2025-12-15T04:38:00.541248", "MEAN_MOTION": 14.05225005, "ECCENTRICITY": 0.00497986, "INCLINATION": 98.8012, "RA_OF_ASC_NODE": 330.9691, "ARG_OF_PERICENTER": 46.3785, "MEAN_ANOMALY": 328.5947, "EPHEMERIS_TYPE": 0, "CLASSIFICATION_TYPE": "U", "NORAD_CAT_ID": 30069, "ELEMENT_SET_NO": 999, "REV_AT_EPOCH": 96881, "BSTAR": 0.00025033829, "MEAN_MOTION_DOT": 3.67e-06, "MEAN_MOTION_DDOT": 0}, "tle": {"line1": "1 30069U 99025PW  25349.19306182  .00000367  00000+0  25034-3 0  9998", "line2": "2 30069  98.8012 330.9691 0049798  46.3785 328.5947 14.05225005968813"}}, "geometry": {"type": "Point", "coordinates": [141.4501900024561, -48.958399064527796]}}, {"type": "Feature", "properties": {"norad_id": 30070, "name": "FENGYUN 1C DEB", "group": "fengyun-1c-debris", "lat": 74.21981094640188, "lon": 18.28800503936732, "alt_km": 989.6543772006435, "timestamp": "2025-12-15T22:44:29.201466+00:00", "meta": {"OBJECT_NAME": "FENGYUN 1C DEB", "OBJECT_ID": "1999-025PX", "EPOCH": "2025-12-15T03:45:56.171232", "MEAN_MOTION": 14.09933652, "ECCENTRICITY": 0.03280083, "INCLINATION": 98.2869, "RA_OF_ASC_NODE": 48.604, "ARG_OF_PERICENTER": 312.0119, "MEAN_ANOMALY": 70.5491, "EPHEMERIS_TYPE": 0, "CLASSIFICATION_TYPE": "U", "NORAD_CAT_ID": 30070, "ELEMENT_SET_NO": 999, "REV_AT_EPOCH": 95913, "BSTAR": 0.0010605059, "MEAN_MOTION_DOT": 3.039e-05, "MEAN_MOTION_DDOT": 0}, "tle": {"line1": "1 30070U 99025PX  25349.15690013  .00003039  00000+0  10605-2 0  9991", "line2": "2 30070  98.2869  48.6040 0328008 312.0119  70.5491 14.09933652959139"}}, "geometry": {"type": "Point", "coordinates": [18.28800503936732, 74.21981094640188]}}]}